{
  "norad_id": 45555,
  "name": "STARLINK-1327",
  "history": [
    {
      "epoch": "2026-03-28T22:09:32.929056Z",
      "apogee_km": 399.1665186213713,
      "perigee_km": 390.48155068663436,
      "latitude_deg": 2.129090483121128e-05,
      "longitude_deg": 174.7869317633406,
      "height_km": 398.82570467840446,
      "semi_major_axis_km": 6772.961034654002,
      "eccentricity": 0.00064115,
      "inclination_deg": 53.0466,
      "raan_deg": 333.5109,
      "arg_perigee_deg": 135.7485,
      "mean_anomaly_deg": 224.404,
      "mean_motion_rev_day": 15.57524534
    },
    {
      "epoch": "2026-03-29T01:14:20.986656Z",
      "apogee_km": 399.0658945589721,
      "perigee_km": 390.48596845733846,
      "latitude_deg": 1.5648747995019117e-05,
      "longitude_deg": 127.83729577660353,
      "height_km": 398.73264793210444,
      "semi_major_axis_km": 6772.912931508155,
      "eccentricity": 0.0006334,
      "inclination_deg": 53.0463,
      "raan_deg": 332.888,
      "arg_perigee_deg": 135.6073,
      "mean_anomaly_deg": 224.5447,
      "mean_motion_rev_day": 15.57541127
    }
  ]
}